NORAD_CAT_ID,OBJECT_NAME,OBJECT_TYPE,EPOCH,MEAN_MOTION,ECCENTRICITY,INCLINATION,RA_OF_ASC_NODE,ARG_OF_PERICENTER,MEAN_ANOMALY,BSTAR,MEAN_MOTION_DOT,MEAN_MOTION_DDOT,TLE_LINE0,TLE_LINE1,TLE_LINE2,SEMIMAJOR_AXIS,PERIOD,APOGEE,PERIGEE,DECAYED
49149.0,STARLINK-3053,PAYLOAD,2022-02-16 14:00:01,14.98343298,0.0003738,69.999,71.3663,288.0674,199.2071,-0.00038658,-4.704e-05,0.0,0 STARLINK-3053,1 49149U 21082V   22047.58334491 -.00004704  00000-0 -38658-3 0  9992,2 49149  69.9990  71.3663 0003738 288.0674 199.2071 14.98343298  3578,6950.151999999999,96.106,574.615,569.419,0.0
49149.0,STARLINK-3053,PAYLOAD,2022-02-16 20:00:01,14.98319776,0.0003622,69.9992,70.7359,284.0962,111.3111,0.0020701,0.00024689,0.0,0 STARLINK-3053,1 49149U 21082V   22047.83334491  .00024689  00000-0  20701-2 0  9991,2 49149  69.9992  70.7359 0003622 284.0962 111.3111 14.98319776 25212,6950.225,96.108,574.607,569.572,0.0
49149.0,STARLINK-3053,PAYLOAD,2022-02-16 22:00:00,14.98305762,0.0003648,69.9991,70.5259,282.8637,201.9183,0.0053135,0.0006385,0.0,0 STARLINK-3053,1 49149U 21082V   22047.91667824  .00063850  00000-0  53135-2 0  9999,2 49149  69.9991  70.5259 0003648 282.8637 201.9183 14.98305762  3582,6950.268,96.109,574.668,569.597,0.0
49149.0,STARLINK-3053,PAYLOAD,2022-02-17 12:00:00,14.98403244,0.0003722,69.9998,69.0596,288.1877,102.1971,-0.015915,-0.00185421,0.0,0 STARLINK-3053,1 49149U 21082V   22048.50001157 -.00185421  00000-0 -15915-1 0  9990,2 49149  69.9998  69.0596 0003722 288.1877 102.1971 14.98403244 25310,6949.965999999999,96.102,574.418,569.245,0.0
49149.0,STARLINK-3053,PAYLOAD,2022-02-17 14:00:01,14.98383981,0.0003627,69.9997,68.8502,287.4796,192.2846,-0.016406,-0.00190893,0.0,0 STARLINK-3053,1 49149U 21082V   22048.58334491 -.00190893  00000-0 -16406-1 0  9993,2 49149  69.9997  68.8502 0003627 287.4796 192.2846 14.98383981  3580,6950.026,96.104,574.4119999999998,569.37,0.0
49149.0,STARLINK-3053,PAYLOAD,2022-02-17 20:00:01,14.98301943,0.0003502,69.9991,68.2139,284.5176,103.4534,0.0020715,0.00024694,0.0,0 STARLINK-3053,1 49149U 21082V   22048.83335648  .00024694  00000-0  20715-2 0  9998,2 49149  69.9991  68.2139 0003502 284.5176 103.4534 14.98301943 25362,6950.28,96.109,574.5790000000002,569.711,0.0
49149.0,STARLINK-3053,PAYLOAD,2022-02-17 22:00:00,14.98286651,0.0003523,69.999,68.0039,283.2607,194.018,0.0054119,0.00065012,0.0,0 STARLINK-3053,1 49149U 21082V   22048.91667824  .00065012  00000-0  54119-2 0  9995,2 49149  69.9990  68.0039 0003523 283.2607 194.0180 14.98286651  3587,6950.3269999999975,96.11,574.641,569.743,0.0
49149.0,STARLINK-3053,PAYLOAD,2022-02-18 14:00:01,14.98335816,0.0003628,69.9991,66.3225,288.6368,183.5767,-0.0015379,-0.00018399,0.0,0 STARLINK-3053,1 49149U 21082V   22049.58334491 -.00018399  00000-0 -15379-2 0  9993,2 49149  69.9991  66.3225 0003628 288.6368 183.5767 14.98335816  3587,6950.175,96.107,574.561,569.518,0.0
49149.0,STARLINK-3053,PAYLOAD,2022-02-18 20:00:01,14.98298595,0.000354,69.9992,65.692,283.8919,96.4439,0.0033938,0.00040605,0.0,0 STARLINK-3053,1 49149U 21082V   22049.83334491  .00040605  00000-0  33938-2 0  9995,2 49149  69.9992  65.6920 0003540 283.8919  96.4439 14.98298595 25511,6950.29,96.109,574.615,569.695,0.0
49149.0,STARLINK-3053,PAYLOAD,2022-02-18 22:00:00,14.98292469,0.0003559,69.9992,65.4819,282.6889,187.0145,0.0054684,0.00065709,0.0,0 STARLINK-3053,1 49149U 21082V   22049.91667824  .00065709  00000-0  54684-2 0  9996,2 49149  69.9992  65.4819 0003559 282.6889 187.0145 14.98292469  3576,6950.309,96.109,574.648,569.7,0.0
49149.0,STARLINK-3053,PAYLOAD,2022-02-19 12:00:02,14.98319087,0.0003709,69.9995,64.0107,287.9331,87.4171,0.0021342,0.00025458,0.0,0 STARLINK-3053,1 49149U 21082V   22050.50002315  .00025458  00000-0  21342-2 0  9993,2 49149  69.9995  64.0107 0003709 287.9331  87.4171 14.98319087 25618,6950.227,96.108,574.669,569.514,0.0
49149.0,STARLINK-3053,PAYLOAD,2022-02-19 14:00:01,14.98343084,0.0003688,69.9993,63.8006,287.7623,176.8886,-0.0019517,-0.00023312,0.0,0 STARLINK-3053,1 49149U 21082V   22050.58334491 -.00023312  00000-0 -19517-2 0  9994,2 49149  69.9993  63.8006 0003688 287.7623 176.8886 14.98343084  3570,6950.151999999999,96.106,574.581,569.4540000000002,0.0
49149.0,STARLINK-3053,PAYLOAD,2022-02-19 22:00:00,14.98299394,0.0003637,69.9996,62.9601,282.038,180.1101,0.0055663999999999,0.00066912,0.0,0 STARLINK-3053,1 49149U 21082V   22050.91667824  .00066912  00000-0  55664-2 0  9994,2 49149  69.9996  62.9601 0003637 282.0380 180.1101 14.98299394  3567,6950.288000000001,96.109,574.68,569.625,0.0
49149.0,STARLINK-3053,PAYLOAD,2022-02-20 04:00:00,14.98359598,0.0003682,70.0,62.3296,283.3766,86.8688,-0.0035353,-0.00042058,0.0,0 STARLINK-3053,1 49149U 21082V   22051.16667824 -.00042058  00000-0 -35353-2 0  9992,2 49149  70.0000  62.3296 0003682 283.3766  86.8688 14.98359598 25718,6950.101,96.105,574.525,569.4069999999998,0.0
49149.0,STARLINK-3053,PAYLOAD,2022-02-20 14:00:01,14.98352423,0.000374,69.9997,61.2788,287.324,169.7886,-0.002334,-0.00027849,0.0,0 STARLINK-3053,1 49149U 21082V   22051.58334491 -.00027849  00000-0 -23340-2 0  9993,2 49149  69.9997  61.2788 0003740 287.3240 169.7886 14.98352423  3571,6950.124,96.106,574.5880000000002,569.389,0.0
49149.0,STARLINK-3053,PAYLOAD,2022-02-20 20:00:01,14.98306779,0.0003665,70.0001,60.6484,282.858,82.3907,0.0046261,0.00055513,0.0,0 STARLINK-3053,1 49149U 21082V   22051.83334491  .00055513  00000-0  46261-2 0  9995,2 49149  70.0001  60.6484 0003665 282.8580  82.3907 14.98306779 25817,6950.265,96.108,574.677,569.582,0.0
49149.0,STARLINK-3053,PAYLOAD,2022-02-20 22:00:00,14.98311436,0.0003673,70.0,60.4384,282.0687,172.5483,0.0048373,0.0005808,0.0,0 STARLINK-3053,1 49149U 21082V   22051.91667824  .00058080  00000-0  48373-2 0  9991,2 49149  70.0000  60.4384 0003673 282.0687 172.5483 14.98311436  3589,6950.25,96.108,574.668,569.562,0.0
49149.0,STARLINK-3053,PAYLOAD,2022-02-21 04:00:01,14.98372784,0.0003683,70.0004,59.808,283.9272,78.858,-0.0074701,-0.00088216,0.0,0 STARLINK-3053,1 49149U 21082V   22052.16668981 -.00088216  00000-0 -74701-2 0  9994,2 49149  70.0004  59.8080 0003683 283.9272  78.8580 14.98372784 25863,6950.061,96.104,574.485,569.366,0.0
49149.0,STARLINK-3053,PAYLOAD,2022-02-21 12:00:00,14.98309391,0.0003675,70.0001,58.9675,288.3082,71.91,0.0014463,0.00017198,0.0,0 STARLINK-3053,1 49149U 21082V   22052.50001157  .00017198  00000-0  14463-2 0  9996,2 49149  70.0001  58.9675 0003675 288.3082  71.9100 14.98309391 25911,6950.257,96.108,574.6759999999998,569.567,0.0
49149.0,STARLINK-3053,PAYLOAD,2022-02-21 22:00:00,14.98288359,0.0003576,70.0004,57.9171,282.7988,164.2563,0.0052246,0.00062742,0.0,0 STARLINK-3053,1 49149U 21082V   22052.91667824  .00062742  00000-0  52246-2 0  9996,2 49149  70.0004  57.9171 0003576 282.7988 164.2563 14.98288359  3585,6950.321999999999,96.11,574.672,569.701,0.0
49149.0,STARLINK-3053,PAYLOAD,2022-02-22 04:00:00,14.98342285,0.0003635,70.0008,57.2868,284.8608,70.2821,-0.0035368,-0.00042057,0.0,0 STARLINK-3053,1 49149U 21082V   22053.16667824 -.00042057  00000-0 -35368-2 0  9999,2 49149  70.0008  57.2868 0003635 284.8608  70.2821 14.98342285 26018,6950.155,96.106,574.5459999999998,569.494,0.0
49149.0,STARLINK-3053,PAYLOAD,2022-02-22 14:00:01,14.98341947,0.0003602,70.0003,56.2363,288.753,153.23,-0.0034189,-0.00040666,0.0,0 STARLINK-3053,1 49149U 21082V   22053.58334491 -.00040666  00000-0 -34189-2 0  9990,2 49149  70.0003  56.2363 0003602 288.7530 153.2300 14.98341947  3577,6950.156,96.106,574.524,569.5169999999998,0.0
49149.0,STARLINK-3053,PAYLOAD,2022-02-22 20:00:01,14.98287363,0.0003517,70.0006,55.606,284.0679,66.0387,0.0053253,0.00063962,0.0,0 STARLINK-3053,1 49149U 21082V   22053.83334491  .00063962  00000-0  53253-2 0  9993,2 49149  70.0006  55.6060 0003517 284.0679  66.0387 14.98287363 26117,6950.325,96.11,574.634,569.745,0.0
49149.0,STARLINK-3053,PAYLOAD,2022-02-22 22:00:00,14.98296762,0.0003519,70.0005,55.396,283.4129,156.0555,0.0048866,0.00058655,0.0,0 STARLINK-3053,1 49149U 21082V   22053.91667824  .00058655  00000-0  48866-2 0  9998,2 49149  70.0005  55.3960 0003519 283.4129 156.0555 14.98296762  3572,6950.295999999999,96.109,574.606,569.715,0.0
49149.0,STARLINK-3053,PAYLOAD,2022-02-23 12:00:00,14.98320642,0.0003531,70.0003,53.9321,287.8489,57.1951,0.0031753,0.00037992,0.0,0 STARLINK-3053,1 49149U 21082V   22054.50001157  .00037992  00000-0  31753-2 0  9993,2 49149  70.0003  53.9321 0003531 287.8489  57.1951 14.98320642 26218,6950.222,96.108,574.5409999999998,569.633,0.0
49149.0,STARLINK-3053,PAYLOAD,2022-02-23 14:00:01,14.9835101,0.0003462,70.0001,53.7229,287.0375,147.3683,-0.0014901,-0.00017838,0.0,0 STARLINK-3053,1 49149U 21082V   22054.58334491 -.00017838  00000-0 -14901-2 0  9996,2 49149  70.0001  53.7229 0003462 287.0375 147.3683 14.98351010  3582,6950.128000000002,96.106,574.399,569.587,0.0
49149.0,STARLINK-3053,PAYLOAD,2022-02-23 20:00:01,14.98291143,0.0003496,70.0006,53.0847,284.2438,58.2965,0.0055117,0.00066232,0.0,0 STARLINK-3053,1 49149U 21082V   22054.83334491  .00066232  00000-0  55117-2 0  9998,2 49149  70.0006  53.0847 0003496 284.2438  58.2965 14.98291143 26265,6950.313,96.109,574.6080000000002,569.748,0.0
49149.0,STARLINK-3053,PAYLOAD,2022-02-23 22:00:00,14.98304127,0.0003489,70.0005,52.8746,283.6133,148.2889,0.0044442,0.00053305,0.0,0 STARLINK-3053,1 49149U 21082V   22054.91667824  .00053305  00000-0  44442-2 0  9992,2 49149  70.0005  52.8746 0003489 283.6133 148.2889 14.98304127  3588,6950.273,96.109,574.563,569.7130000000002,0.0
49149.0,STARLINK-3053,PAYLOAD,2022-02-24 14:00:01,14.983568300000002,0.000358,70.0003,51.1935,288.7438,138.1191,-0.0040972,-0.00048678,0.0,0 STARLINK-3053,1 49149U 21082V   22055.58334491 -.00048678  00000-0 -40972-2 0  9990,2 49149  70.0003  51.1935 0003580 288.7438 138.1191 14.98356830  3575,6950.11,96.105,574.4630000000002,569.487,0.0
